STARLINK-35935          
1 66527U 25265M   25349.22371429  .00102075  00000+0  17225-2 0  9992
2 66527  43.0013  39.4445 0001585 277.3030  82.7650 15.50588830  4149
STARLINK-35928          
1 66528U 25265N   25349.15893301  .00047535  00000+0  80909-3 0  9992
2 66528  43.0014  39.8190 0001300 242.4749 117.5979 15.50651241  4134
STARLINK-35933          
1 66529U 25265P   25349.33335648 -.00000795  00000+0 -11785-4 0  9994
2 66529  43.0004  39.0818 0001165 272.5558 225.2184 15.40698627  5419
STARLINK-35961          
1 66530U 25265Q   25349.33335648  .00006291  00000+0  15776-3 0  9994
2 66530  43.0005  39.0226 0001114 271.4665 251.1862 15.40696160  5417
STARLINK-35960          
1 66531U 25265R   25349.33335648  .00003693  00000+0  95635-4 0  9991
2 66531  43.0004  38.9610 0001272 291.4617 256.0738 15.40696428  5419
STARLINK-35914          
1 66532U 25265S   25349.33335648  .00008273  00000+0  20517-3 0  9997
2 66532  43.0000  38.9007 0001527 285.1276 287.3030 15.40688674  5416
STARLINK-35707          
1 66533U 25265T   25347.86892077  .00074308  00000+0  12610-2 0  9994
2 66533  42.9992  47.3369 0002450 286.6299  73.4292 15.50564385  3939
STARLINK-35976          
1 66534U 25265U   25349.15687292  .00053921  00000+0  91597-3 0  9990
2 66534  42.9975  39.8011 0001471 259.3287 100.7408 15.50660145  4134
STARLINK-35514          
1 66535U 25265V   25348.44796655  .00135490  00000+0  22722-2 0  9991
2 66535  43.0008  43.9405 0001652 257.8771 102.1904 15.50620505  4020
STARLINK-35640          
1 66536U 25265W   25349.15618737  .00070617  00000+0  11970-2 0  9997
2 66536  43.0011  39.7948 0001836 248.9899 111.0765 15.50617506  4139
STARLINK-35582          
1 66537U 25265X   25349.15584469  .00049952  00000+0  85031-3 0  9990
2 66537  42.9969  39.7918 0000188 190.5538 169.5319 15.50630023  4130
STARLINK-35577          
1 66538U 25265Y   25349.15550301  .00054267  00000+0  92328-3 0  9991
2 66538  43.0014  39.7922 0000499 281.4831  78.5973 15.50614397  4131
