CCSDS_OMM_VERS = 2.0
CREATION_DATE  = 
ORIGINATOR     = 

OBJECT_NAME    = STARLINK-35935
OBJECT_ID      = 2025-265M
CENTER_NAME    = EARTH
REF_FRAME      = TEME
TIME_SYSTEM    = UTC
MEAN_ELEMENT_THEORY = SGP/SGP4

EPOCH          = 2025-12-15T05:22:08.914656
MEAN_MOTION    = 15.50588830
ECCENTRICITY   = .00015859
INCLINATION    = 43.0013
RA_OF_ASC_NODE = 39.4445
ARG_OF_PERICENTER = 277.3030
MEAN_ANOMALY   = 82.7650

EPHEMERIS_TYPE = 0
CLASSIFICATION_TYPE = U
NORAD_CAT_ID   = 66527
ELEMENT_SET_NO = 999
REV_AT_EPOCH   = 414
BSTAR          = .17225363E-2
MEAN_MOTION_DOT = .102075E-2
MEAN_MOTION_DDOT = 0

CCSDS_OMM_VERS = 2.0
CREATION_DATE  = 
ORIGINATOR     = 

OBJECT_NAME    = STARLINK-35928
OBJECT_ID      = 2025-265N
CENTER_NAME    = EARTH
REF_FRAME      = TEME
TIME_SYSTEM    = UTC
MEAN_ELEMENT_THEORY = SGP/SGP4

EPOCH          = 2025-12-15T03:48:51.812064
MEAN_MOTION    = 15.50651241
ECCENTRICITY   = .00013007
INCLINATION    = 43.0014
RA_OF_ASC_NODE = 39.8190
ARG_OF_PERICENTER = 242.4749
MEAN_ANOMALY   = 117.5979

EPHEMERIS_TYPE = 0
CLASSIFICATION_TYPE = U
NORAD_CAT_ID   = 66528
ELEMENT_SET_NO = 999
REV_AT_EPOCH   = 413
BSTAR          = .80909199E-3
MEAN_MOTION_DOT = .47535E-3
MEAN_MOTION_DDOT = 0

CCSDS_OMM_VERS = 2.0
CREATION_DATE  = 
ORIGINATOR     = 

OBJECT_NAME    = STARLINK-35933
OBJECT_ID      = 2025-265P
CENTER_NAME    = EARTH
REF_FRAME      = TEME
TIME_SYSTEM    = UTC
MEAN_ELEMENT_THEORY = SGP/SGP4

EPOCH          = 2025-12-15T08:00:01.999872
MEAN_MOTION    = 15.40698627
ECCENTRICITY   = .00011654
INCLINATION    = 43.0004
RA_OF_ASC_NODE = 39.0818
ARG_OF_PERICENTER = 272.5558
MEAN_ANOMALY   = 225.2184

EPHEMERIS_TYPE = 0
CLASSIFICATION_TYPE = U
NORAD_CAT_ID   = 66529
ELEMENT_SET_NO = 999
REV_AT_EPOCH   = 541
BSTAR          = -.11784886E-4
MEAN_MOTION_DOT = -.795E-5
MEAN_MOTION_DDOT = 0

CCSDS_OMM_VERS = 2.0
CREATION_DATE  = 
ORIGINATOR     = 

OBJECT_NAME    = STARLINK-35961
OBJECT_ID      = 2025-265Q
CENTER_NAME    = EARTH
REF_FRAME      = TEME
TIME_SYSTEM    = UTC
MEAN_ELEMENT_THEORY = SGP/SGP4

EPOCH          = 2025-12-15T08:00:01.999872
MEAN_MOTION    = 15.40696160
ECCENTRICITY   = .00011145
INCLINATION    = 43.0005
RA_OF_ASC_NODE = 39.0226
ARG_OF_PERICENTER = 271.4665
MEAN_ANOMALY   = 251.1862

EPHEMERIS_TYPE = 0
CLASSIFICATION_TYPE = U
NORAD_CAT_ID   = 66530
ELEMENT_SET_NO = 999
REV_AT_EPOCH   = 541
BSTAR          = .15776216E-3
MEAN_MOTION_DOT = .6291E-4
MEAN_MOTION_DDOT = 0

CCSDS_OMM_VERS = 2.0
CREATION_DATE  = 
ORIGINATOR     = 

OBJECT_NAME    = STARLINK-35960
OBJECT_ID      = 2025-265R
CENTER_NAME    = EARTH
REF_FRAME      = TEME
TIME_SYSTEM    = UTC
MEAN_ELEMENT_THEORY = SGP/SGP4

EPOCH          = 2025-12-15T08:00:01.999872
MEAN_MOTION    = 15.40696428
ECCENTRICITY   = .00012724
INCLINATION    = 43.0004
RA_OF_ASC_NODE = 38.9610
ARG_OF_PERICENTER = 291.4617
MEAN_ANOMALY   = 256.0738

EPHEMERIS_TYPE = 0
CLASSIFICATION_TYPE = U
NORAD_CAT_ID   = 66531
ELEMENT_SET_NO = 999
REV_AT_EPOCH   = 541
BSTAR          = .95635284E-4
MEAN_MOTION_DOT = .3693E-4
MEAN_MOTION_DDOT = 0

CCSDS_OMM_VERS = 2.0
CREATION_DATE  = 
ORIGINATOR     = 

OBJECT_NAME    = STARLINK-35914
OBJECT_ID      = 2025-265S
CENTER_NAME    = EARTH
REF_FRAME      = TEME
TIME_SYSTEM    = UTC
MEAN_ELEMENT_THEORY = SGP/SGP4

EPOCH          = 2025-12-15T08:00:01.999872
MEAN_MOTION    = 15.40688674
ECCENTRICITY   = .0001527
INCLINATION    = 43.0000
RA_OF_ASC_NODE = 38.9007
ARG_OF_PERICENTER = 285.1276
MEAN_ANOMALY   = 287.3030

EPHEMERIS_TYPE = 0
CLASSIFICATION_TYPE = U
NORAD_CAT_ID   = 66532
ELEMENT_SET_NO = 999
REV_AT_EPOCH   = 541
BSTAR          = .20517324E-3
MEAN_MOTION_DOT = .8273E-4
MEAN_MOTION_DDOT = 0

CCSDS_OMM_VERS = 2.0
CREATION_DATE  = 
ORIGINATOR     = 

OBJECT_NAME    = STARLINK-35707
OBJECT_ID      = 2025-265T
CENTER_NAME    = EARTH
REF_FRAME      = TEME
TIME_SYSTEM    = UTC
MEAN_ELEMENT_THEORY = SGP/SGP4

EPOCH          = 2025-12-13T20:51:14.754528
MEAN_MOTION    = 15.50564385
ECCENTRICITY   = .00024505
INCLINATION    = 42.9992
RA_OF_ASC_NODE = 47.3369
ARG_OF_PERICENTER = 286.6299
MEAN_ANOMALY   = 73.4292

EPHEMERIS_TYPE = 0
CLASSIFICATION_TYPE = U
NORAD_CAT_ID   = 66533
ELEMENT_SET_NO = 999
REV_AT_EPOCH   = 393
BSTAR          = .12610474E-2
MEAN_MOTION_DOT = .74308E-3
MEAN_MOTION_DDOT = 0

CCSDS_OMM_VERS = 2.0
CREATION_DATE  = 
ORIGINATOR     = 

OBJECT_NAME    = STARLINK-35976
OBJECT_ID      = 2025-265U
CENTER_NAME    = EARTH
REF_FRAME      = TEME
TIME_SYSTEM    = UTC
MEAN_ELEMENT_THEORY = SGP/SGP4

EPOCH          = 2025-12-15T03:45:53.820288
MEAN_MOTION    = 15.50660145
ECCENTRICITY   = .00014712
INCLINATION    = 42.9975
RA_OF_ASC_NODE = 39.8011
ARG_OF_PERICENTER = 259.3287
MEAN_ANOMALY   = 100.7408

EPHEMERIS_TYPE = 0
CLASSIFICATION_TYPE = U
NORAD_CAT_ID   = 66534
ELEMENT_SET_NO = 999
REV_AT_EPOCH   = 413
BSTAR          = .91597059E-3
MEAN_MOTION_DOT = .53921E-3
MEAN_MOTION_DDOT = 0

CCSDS_OMM_VERS = 2.0
CREATION_DATE  = 
ORIGINATOR     = 

OBJECT_NAME    = STARLINK-35514
OBJECT_ID      = 2025-265V
CENTER_NAME    = EARTH
REF_FRAME      = TEME
TIME_SYSTEM    = UTC
MEAN_ELEMENT_THEORY = SGP/SGP4

EPOCH          = 2025-12-14T10:45:04.309920
MEAN_MOTION    = 15.50620505
ECCENTRICITY   = .00016527
INCLINATION    = 43.0008
RA_OF_ASC_NODE = 43.9405
ARG_OF_PERICENTER = 257.8771
MEAN_ANOMALY   = 102.1904

EPHEMERIS_TYPE = 0
CLASSIFICATION_TYPE = U
NORAD_CAT_ID   = 66535
ELEMENT_SET_NO = 999
REV_AT_EPOCH   = 402
BSTAR          = .22722023E-2
MEAN_MOTION_DOT = .13549E-2
MEAN_MOTION_DDOT = 0

CCSDS_OMM_VERS = 2.0
CREATION_DATE  = 
ORIGINATOR     = 

OBJECT_NAME    = STARLINK-35640
OBJECT_ID      = 2025-265W
CENTER_NAME    = EARTH
REF_FRAME      = TEME
TIME_SYSTEM    = UTC
MEAN_ELEMENT_THEORY = SGP/SGP4

EPOCH          = 2025-12-15T03:44:54.588768
MEAN_MOTION    = 15.50617506
ECCENTRICITY   = .00018369
INCLINATION    = 43.0011
RA_OF_ASC_NODE = 39.7948
ARG_OF_PERICENTER = 248.9899
MEAN_ANOMALY   = 111.0765

EPHEMERIS_TYPE = 0
CLASSIFICATION_TYPE = U
NORAD_CAT_ID   = 66536
ELEMENT_SET_NO = 999
REV_AT_EPOCH   = 413
BSTAR          = .11970398E-2
MEAN_MOTION_DOT = .70617E-3
MEAN_MOTION_DDOT = 0

CCSDS_OMM_VERS = 2.0
CREATION_DATE  = 
ORIGINATOR     = 

OBJECT_NAME    = STARLINK-35582
OBJECT_ID      = 2025-265X
CENTER_NAME    = EARTH
REF_FRAME      = TEME
TIME_SYSTEM    = UTC
MEAN_ELEMENT_THEORY = SGP/SGP4

EPOCH          = 2025-12-15T03:44:24.981216
MEAN_MOTION    = 15.50630023
ECCENTRICITY   = .00001888
INCLINATION    = 42.9969
RA_OF_ASC_NODE = 39.7918
ARG_OF_PERICENTER = 190.5538
MEAN_ANOMALY   = 169.5319

EPHEMERIS_TYPE = 0
CLASSIFICATION_TYPE = U
NORAD_CAT_ID   = 66537
ELEMENT_SET_NO = 999
REV_AT_EPOCH   = 413
BSTAR          = .85030933E-3
MEAN_MOTION_DOT = .49952E-3
MEAN_MOTION_DDOT = 0

CCSDS_OMM_VERS = 2.0
CREATION_DATE  = 
ORIGINATOR     = 

OBJECT_NAME    = STARLINK-35577
OBJECT_ID      = 2025-265Y
CENTER_NAME    = EARTH
REF_FRAME      = TEME
TIME_SYSTEM    = UTC
MEAN_ELEMENT_THEORY = SGP/SGP4

EPOCH          = 2025-12-15T03:43:55.460064
MEAN_MOTION    = 15.50614397
ECCENTRICITY   = .00004994
INCLINATION    = 43.0014
RA_OF_ASC_NODE = 39.7922
ARG_OF_PERICENTER = 281.4831
MEAN_ANOMALY   = 78.5973

EPHEMERIS_TYPE = 0
CLASSIFICATION_TYPE = U
NORAD_CAT_ID   = 66538
ELEMENT_SET_NO = 999
REV_AT_EPOCH   = 413
BSTAR          = .92327968E-3
MEAN_MOTION_DOT = .54267E-3
MEAN_MOTION_DDOT = 0

